[{"OBJECT_NAME":"SCD 1","OBJECT_ID":"1993-009B","EPOCH":"2026-04-25T12:02:59.292096","MEAN_MOTION":14.46096172,"ECCENTRICITY":0.0041718,"INCLINATION":24.9683,"RA_OF_ASC_NODE":172.8692,"ARG_OF_PERICENTER":300.6769,"MEAN_ANOMALY":82.0619,"EPHEMERIS_TYPE":0,"CLASSIFICATION_TYPE":"U","NORAD_CAT_ID":22490,"ELEMENT_SET_NO":999,"REV_AT_EPOCH":75348,"BSTAR":6.1025e-5,"MEAN_MOTION_DOT":4.09e-6,"MEAN_MOTION_DDOT":0},{"OBJECT_NAME":"TECHSAT 1B (GO-32)","OBJECT_ID":"1998-043D","EPOCH":"2026-04-25T14:13:27.552000","MEAN_MOTION":14.24417549,"ECCENTRICITY":0.0001809,"INCLINATION":99.0061,"RA_OF_ASC_NODE":107.0293,"ARG_OF_PERICENTER":44.1616,"MEAN_ANOMALY":315.9706,"EPHEMERIS_TYPE":0,"CLASSIFICATION_TYPE":"U","NORAD_CAT_ID":25397,"ELEMENT_SET_NO":999,"REV_AT_EPOCH":44384,"BSTAR":4.3792e-5,"MEAN_MOTION_DOT":5.5e-7,"MEAN_MOTION_DDOT":0},{"OBJECT_NAME":"SCD 2","OBJECT_ID":"1998-060A","EPOCH":"2026-04-25T12:11:16.808352","MEAN_MOTION":14.45505031,"ECCENTRICITY":0.0016524,"INCLINATION":24.9964,"RA_OF_ASC_NODE":37.0247,"ARG_OF_PERICENTER":286.5772,"MEAN_ANOMALY":234.5118,"EPHEMERIS_TYPE":0,"CLASSIFICATION_TYPE":"U","NORAD_CAT_ID":25504,"ELEMENT_SET_NO":999,"REV_AT_EPOCH":45269,"BSTAR":5.4241e-5,"MEAN_MOTION_DOT":3.77e-6,"MEAN_MOTION_DDOT":0},{"OBJECT_NAME":"DLR-TUBSAT","OBJECT_ID":"1999-029B","EPOCH":"2026-04-25T14:12:36.099936","MEAN_MOTION":14.52412431,"ECCENTRICITY":0.0014824,"INCLINATION":98.6692,"RA_OF_ASC_NODE":109.3694,"ARG_OF_PERICENTER":146.2134,"MEAN_ANOMALY":214.0008,"EPHEMERIS_TYPE":0,"CLASSIFICATION_TYPE":"U","NORAD_CAT_ID":25757,"ELEMENT_SET_NO":999,"REV_AT_EPOCH":42561,"BSTAR":2.8859e-5,"MEAN_MOTION_DOT":6.9e-7,"MEAN_MOTION_DDOT":0},{"OBJECT_NAME":"TERRA","OBJECT_ID":"1999-068A","EPOCH":"2026-04-25T20:07:10.308000","MEAN_MOTION":14.61060159,"ECCENTRICITY":0.0003216,"INCLINATION":97.9503,"RA_OF_ASC_NODE":167.449,"ARG_OF_PERICENTER":56.8981,"MEAN_ANOMALY":31.3058,"EPHEMERIS_TYPE":0,"CLASSIFICATION_TYPE":"U","NORAD_CAT_ID":25994,"ELEMENT_SET_NO":999,"REV_AT_EPOCH":40196,"BSTAR":8.609e-5,"MEAN_MOTION_DOT":3.78e-6,"MEAN_MOTION_DDOT":0},{"OBJECT_NAME":"MAROC-TUBSAT","OBJECT_ID":"2001-056D","EPOCH":"2026-04-25T12:06:26.201088","MEAN_MOTION":13.70260156,"ECCENTRICITY":0.0019045,"INCLINATION":99.806,"RA_OF_ASC_NODE":291.3745,"ARG_OF_PERICENTER":278.2109,"MEAN_ANOMALY":149.9588,"EPHEMERIS_TYPE":0,"CLASSIFICATION_TYPE":"U","NORAD_CAT_ID":27004,"ELEMENT_SET_NO":999,"REV_AT_EPOCH":21897,"BSTAR":3.1515e-5,"MEAN_MOTION_DOT":-1.9e-7,"MEAN_MOTION_DDOT":0},{"OBJECT_NAME":"AQUA","OBJECT_ID":"2002-022A","EPOCH":"2026-04-25T21:36:13.500864","MEAN_MOTION":14.62073952,"ECCENTRICITY":0.0002029,"INCLINATION":98.4243,"RA_OF_ASC_NODE":84.1533,"ARG_OF_PERICENTER":96.0266,"MEAN_ANOMALY":288.5956,"EPHEMERIS_TYPE":0,"CLASSIFICATION_TYPE":"U","NORAD_CAT_ID":27424,"ELEMENT_SET_NO":999,"REV_AT_EPOCH":27563,"BSTAR":0.00017916,"MEAN_MOTION_DOT":8.5e-6,"MEAN_MOTION_DDOT":0},{"OBJECT_NAME":"SHIYAN-1 (SY-1)","OBJECT_ID":"2004-012A","EPOCH":"2026-04-25T20:04:27.664320","MEAN_MOTION":15.3238399,"ECCENTRICITY":0.0005776,"INCLINATION":97.8705,"RA_OF_ASC_NODE":190.5599,"ARG_OF_PERICENTER":190.9329,"MEAN_ANOMALY":169.1787,"EPHEMERIS_TYPE":0,"CLASSIFICATION_TYPE":"U","NORAD_CAT_ID":28220,"ELEMENT_SET_NO":999,"REV_AT_EPOCH":20307,"BSTAR":0.00050953,"MEAN_MOTION_DOT":0.0001587,"MEAN_MOTION_DDOT":0},{"OBJECT_NAME":"AURA","OBJECT_ID":"2004-026A","EPOCH":"2026-04-25T21:04:09.242400","MEAN_MOTION":14.61245571,"ECCENTRICITY":0.000169,"INCLINATION":98.3381,"RA_OF_ASC_NODE":71.9138,"ARG_OF_PERICENTER":85.4031,"MEAN_ANOMALY":274.7362,"EPHEMERIS_TYPE":0,"CLASSIFICATION_TYPE":"U","NORAD_CAT_ID":28376,"ELEMENT_SET_NO":999,"REV_AT_EPOCH":15857,"BSTAR":0.00018258,"MEAN_MOTION_DOT":8.52e-6,"MEAN_MOTION_DDOT":0},{"OBJECT_NAME":"IRS-P5 (CARTOSAT-1)","OBJECT_ID":"2005-017A","EPOCH":"2026-04-25T12:42:53.989920","MEAN_MOTION":14.90909134,"ECCENTRICITY":0.0001013,"INCLINATION":97.5352,"RA_OF_ASC_NODE":140.9782,"ARG_OF_PERICENTER":129.6254,"MEAN_ANOMALY":230.5055,"EPHEMERIS_TYPE":0,"CLASSIFICATION_TYPE":"U","NORAD_CAT_ID":28649,"ELEMENT_SET_NO":999,"REV_AT_EPOCH":13597,"BSTAR":0.00011972,"MEAN_MOTION_DOT":1.128e-5,"MEAN_MOTION_DDOT":0},{"OBJECT_NAME":"SINAH 1","OBJECT_ID":"2005-043D","EPOCH":"2026-04-25T20:13:00.081120","MEAN_MOTION":14.64120366,"ECCENTRICITY":0.0015717,"INCLINATION":98.2779,"RA_OF_ASC_NODE":249.8796,"ARG_OF_PERICENTER":81.5941,"MEAN_ANOMALY":278.7043,"EPHEMERIS_TYPE":0,"CLASSIFICATION_TYPE":"U","NORAD_CAT_ID":28893,"ELEMENT_SET_NO":999,"REV_AT_EPOCH":9286,"BSTAR":8.2849e-5,"MEAN_MOTION_DOT":3.87e-6,"MEAN_MOTION_DDOT":0},{"OBJECT_NAME":"RESURS-DK 1","OBJECT_ID":"2006-021A","EPOCH":"2026-04-25T17:50:49.930080","MEAN_MOTION":15.12985142,"ECCENTRICITY":0.0003266,"INCLINATION":69.9299,"RA_OF_ASC_NODE":115.2839,"ARG_OF_PERICENTER":341.1886,"MEAN_ANOMALY":18.9158,"EPHEMERIS_TYPE":0,"CLASSIFICATION_TYPE":"U","NORAD_CAT_ID":29228,"ELEMENT_SET_NO":999,"REV_AT_EPOCH":9464,"BSTAR":0.00012463,"MEAN_MOTION_DOT":2.097e-5,"MEAN_MOTION_DDOT":0},{"OBJECT_NAME":"ARIRANG-2 (KOMPSAT-2)","OBJECT_ID":"2006-031A","EPOCH":"2026-04-25T13:16:45.979680","MEAN_MOTION":14.64623951,"ECCENTRICITY":0.0013135,"INCLINATION":97.8317,"RA_OF_ASC_NODE":302.5457,"ARG_OF_PERICENTER":238.0602,"MEAN_ANOMALY":189.8722,"EPHEMERIS_TYPE":0,"CLASSIFICATION_TYPE":"U","NORAD_CAT_ID":29268,"ELEMENT_SET_NO":999,"REV_AT_EPOCH":5377,"BSTAR":-2.3137e-6,"MEAN_MOTION_DOT":-5.7e-7,"MEAN_MOTION_DDOT":0},{"OBJECT_NAME":"LAPAN-TUBSAT","OBJECT_ID":"2007-001A","EPOCH":"2026-04-25T12:39:56.996928","MEAN_MOTION":14.85891637,"ECCENTRICITY":0.0012385,"INCLINATION":98.1352,"RA_OF_ASC_NODE":113.5685,"ARG_OF_PERICENTER":3.9901,"MEAN_ANOMALY":356.141,"EPHEMERIS_TYPE":0,"CLASSIFICATION_TYPE":"U","NORAD_CAT_ID":29709,"ELEMENT_SET_NO":999,"REV_AT_EPOCH":4333,"BSTAR":1.0218e-6,"MEAN_MOTION_DOT":-4.9e-7,"MEAN_MOTION_DDOT":0},{"OBJECT_NAME":"HAIYANG-1B","OBJECT_ID":"2007-010A","EPOCH":"2026-04-25T10:11:43.209888","MEAN_MOTION":14.31013421,"ECCENTRICITY":0.0013602,"INCLINATION":98.3476,"RA_OF_ASC_NODE":99.3241,"ARG_OF_PERICENTER":3.2989,"MEAN_ANOMALY":356.8282,"EPHEMERIS_TYPE":0,"CLASSIFICATION_TYPE":"U","NORAD_CAT_ID":31113,"ELEMENT_SET_NO":999,"REV_AT_EPOCH":99308,"BSTAR":5.541e-5,"MEAN_MOTION_DOT":1.04e-6,"MEAN_MOTION_DDOT":0},{"OBJECT_NAME":"COSMO-SKYMED 1","OBJECT_ID":"2007-023A","EPOCH":"2026-04-25T12:42:41.698656","MEAN_MOTION":14.9683671,"ECCENTRICITY":0.0001324,"INCLINATION":97.887,"RA_OF_ASC_NODE":306.9477,"ARG_OF_PERICENTER":101.7957,"MEAN_ANOMALY":258.3413,"EPHEMERIS_TYPE":0,"CLASSIFICATION_TYPE":"U","NORAD_CAT_ID":31598,"ELEMENT_SET_NO":999,"REV_AT_EPOCH":2191,"BSTAR":0.00025803,"MEAN_MOTION_DOT":2.897e-5,"MEAN_MOTION_DDOT":0},{"OBJECT_NAME":"TERRASAR-X","OBJECT_ID":"2007-026A","EPOCH":"2026-04-24T12:13:04.410912","MEAN_MOTION":15.19152007,"ECCENTRICITY":0.00017411,"INCLINATION":97.4451,"RA_OF_ASC_NODE":122.9796,"ARG_OF_PERICENTER":84.4193,"MEAN_ANOMALY":275.724,"EPHEMERIS_TYPE":0,"CLASSIFICATION_TYPE":"U","NORAD_CAT_ID":31698,"ELEMENT_SET_NO":999,"REV_AT_EPOCH":4507,"BSTAR":1.5642139e-5,"MEAN_MOTION_DOT":2.61e-6,"MEAN_MOTION_DDOT":0}]
