SCD 1                   
1 22490U 93009B   26115.50207514  .00000409  00000+0  61025-4 0  9997
2 22490  24.9683 172.8692 0041718 300.6769  82.0619 14.46096172753481
TECHSAT 1B (GO-32)      
1 25397U 98043D   26115.59268000  .00000055  00000+0  43792-4 0  9993
2 25397  99.0061 107.0293 0001809  44.1616 315.9706 14.24417549443840
SCD 2                   
1 25504U 98060A   26115.50783343  .00000377  00000+0  54241-4 0  9993
2 25504  24.9964  37.0247 0016524 286.5772 234.5118 14.45505031452698
DLR-TUBSAT              
1 25757U 99029B   26115.59208449  .00000069  00000+0  28859-4 0  9991
2 25757  98.6692 109.3694 0014824 146.2134 214.0008 14.52412431425610
TERRA                   
1 25994U 99068A   26115.83831375  .00000378  00000+0  86090-4 0  9998
2 25994  97.9503 167.4490 0003216  56.8981  31.3058 14.61060159401967
MAROC-TUBSAT            
1 27004U 01056D   26115.50446992 -.00000019  00000+0  31515-4 0  9998
2 27004  99.8060 291.3745 0019045 278.2109 149.9588 13.70260156218978
AQUA                    
1 27424U 02022A   26115.90015626  .00000850  00000+0  17916-3 0  9998
2 27424  98.4243  84.1533 0002029  96.0266 288.5956 14.62073952275632
SHIYAN-1 (SY-1)         
1 28220U 04012A   26115.83643130  .00015870  00000+0  50953-3 0  9999
2 28220  97.8705 190.5599 0005776 190.9329 169.1787 15.32383990203072
AURA                    
1 28376U 04026A   26115.87788475  .00000852  00000+0  18258-3 0  9998
2 28376  98.3381  71.9138 0001690  85.4031 274.7362 14.61245571158579
IRS-P5 (CARTOSAT-1)     
1 28649U 05017A   26115.52979155  .00001128  00000+0  11972-3 0  9994
2 28649  97.5352 140.9782 0001013 129.6254 230.5055 14.90909134135972
SINAH 1                 
1 28893U 05043D   26115.84236205  .00000387  00000+0  82849-4 0  9999
2 28893  98.2779 249.8796 0015717  81.5941 278.7043 14.64120366 92867
RESURS-DK 1             
1 29228U 06021A   26115.74363345  .00002097  00000+0  12463-3 0  9998
2 29228  69.9299 115.2839 0003266 341.1886  18.9158 15.12985142 94649
ARIRANG-2 (KOMPSAT-2)   
1 29268U 06031A   26115.55330995 -.00000057  00000+0 -23137-5 0  9995
2 29268  97.8317 302.5457 0013135 238.0602 189.8722 14.64623951 53774
LAPAN-TUBSAT            
1 29709U 07001A   26115.52774302 -.00000049  00000+0  10218-5 0  9990
2 29709  98.1352 113.5685 0012385   3.9901 356.1410 14.85891637 43332
HAIYANG-1B              
1 31113U 07010A   26115.42480567  .00000104  00000+0  55410-4 0  9991
2 31113  98.3476  99.3241 0013602   3.2989 356.8282 14.31013421993082
COSMO-SKYMED 1          
1 31598U 07023A   26115.52964929  .00002897  00000+0  25803-3 0  9995
2 31598  97.8870 306.9477 0001324 101.7957 258.3413 14.96836710 21917
TERRASAR-X              
1 31698U 07026A   26114.50907883  .00000261  00000+0  15642-4 0  9996
2 31698  97.4451 122.9796 0001741  84.4193 275.7240 15.19152007 45071
